POLYGON ((-102.91977718323203 44.048378513930366, -88.2163445395042 42.236159747453925, -80.33000077993412 25.422272854101735, -79.89555701365643 24.959252020766442, -80.42472368032512 24.465018622327094, -81.80055701366408 24.077135321544247, -82.99965694856459 24.2184186874302, -82.81839877378955 22.912094803037668, -84.29114211986946 21.982620455330597, -87.47133620689667 21.321336206896568, -91.020870492569 16.369038622824863, -98.41243179520713 18.719727387357867, -102.91977718323203 44.048378513930366))
