POLYGON ((-72.63103448275876 3.602586206896568, -77.15689655172427 7.368103448275882, -77.6637931034484 8.400000000000015, -78.48297413793117 9.146767241379324, -79.56012931034496 9.318750000000014, -80.4607758620691 8.676077586206912, -81.52435344827599 8.495043103448292, -83.35280172413805 9.563146551724156, -85.0907327586208 12.296767241379328, -88.42176724137941 15.320043103448292, -91.2730603448277 16.460560344827602, -87.47133620689667 21.321336206896568, -84.17537715517255 23.20183189655174, -79.7219288793105 23.744935344827603, -76.110290948276 22.06131465517243, -69.4301185344829 20.106142241379327, -62.88572198275877 20.051831896551743, -58.45942887931049 17.390625000000018, -57.8801185344829 12.914547413793123, -59.12925646551737 10.090409482758641, -60.0706357758622 8.1533405172414, -72.63103448275876 3.602586206896568))
